line1,line2,validFromUtcTime
1 00000U 00000E   26001.00000000  .00000000  00000-0  27772-4 0    01,2 00000  88.8546  90.3330 0010060 269.9250 300.0767 13.55299937    05,2026-01-01T00:00:00Z
1 00000U 00000E   26002.00000000  .00000000  00000-0  27772-4 0    02,2 00000  88.8546  90.2165 0010060 267.0153 139.1550 13.55299976    05,2026-01-02T00:00:00Z
